TEVEL2-3                
1 63218U 25052J   26068.64540225  .00020365  00000+0  69446-3 0  9991
2 63218  97.3994 324.7775 0004761 105.7353 254.4413 15.30377031 54855
STARLINK-33903          
1 63828U 25092AA  26068.29064626  .00027937  00000+0  10206-2 0  9990
2 63828  43.0062 174.7963 0001760 272.7263  87.3387 15.27590184 48600
